STARLINK-1143_new
1 15179C 20012B   21326.12603809  .00007467  00000-0  50020-3 0  3262
2 15179  53.0519 248.1865 0001775  71.7081   9.4729 15.06399196    10
STARLINK-1143_old
1 25179C 20012B   21325.11023522  .00004968  00000-0  33286-3 0  3255
2 25179  53.0522 252.7465 0001694  71.9744 257.4233 15.06390470    10
